NORAD_CAT_ID,OBJECT_NAME,OBJECT_TYPE,EPOCH,MEAN_MOTION,ECCENTRICITY,INCLINATION,RA_OF_ASC_NODE,ARG_OF_PERICENTER,MEAN_ANOMALY,BSTAR,MEAN_MOTION_DOT,MEAN_MOTION_DDOT,TLE_LINE0,TLE_LINE1,TLE_LINE2,SEMIMAJOR_AXIS,PERIOD,APOGEE,PERIGEE,DECAYED
53287.0,STARLINK-4107,PAYLOAD,2023-10-25 21:27:15,15.08843401,0.0001461,53.2166,110.8288,93.2778,266.8381,4.4351e-05,4.18e-06,0.0,0 STARLINK-4107,1 53287U 22086AX  23298.89392878  .00000418  00000-0  44351-4 0  9995,2 53287  53.2166 110.8288 0001461  93.2778 266.8381 15.08843401 70483,6917.87,95.437,540.746,538.724,0.0
53287.0,STARLINK-4107,PAYLOAD,2023-10-26 13:21:06,15.08838899,0.0001385,53.2168,107.8554,91.4021,268.713,2.9315e-05,1.79e-06,0.0,0 STARLINK-4107,1 53287U 22086AX  23299.55633090  .00000179  00000-0  29315-4 0  9990,2 53287  53.2168 107.8554 0001385  91.4021 268.7130 15.08838899 70582,6917.884,95.438,540.707,538.791,0.0
53287.0,STARLINK-4107,PAYLOAD,2023-10-26 21:18:02,15.08846547,0.0001409,53.2169,106.3687,92.1562,267.9591,4.415e-05,4.15e-06,0.0,0 STARLINK-4107,1 53287U 22086AX  23299.88752467  .00000415  00000-0  44150-4 0  9993,2 53287  53.2169 106.3687 0001409  92.1562 267.9591 15.08846547 70636,6917.86,95.437,540.7,538.751,0.0
53287.0,STARLINK-4107,PAYLOAD,2023-10-26 22:53:25,15.08847384,0.0001399,53.2169,106.0713,91.8004,268.3149,5.0477e-05,5.16e-06,0.0,0 STARLINK-4107,1 53287U 22086AX  23299.95376367  .00000516  00000-0  50477-4 0  9993,2 53287  53.2169 106.0713 0001399  91.8004 268.3149 15.08847384 70485,6917.858,95.437,540.691,538.755,0.0
53287.0,STARLINK-4107,PAYLOAD,2023-10-27 11:36:30,15.08838674,0.0001364,53.2169,103.6926,92.5374,267.5774,8.5725e-05,1.077e-05,0.0,0 STARLINK-4107,1 53287U 22086AX  23300.48368773  .00001077  00000-0  85725-4 0  9993,2 53287  53.2169 103.6926 0001364  92.5374 267.5774 15.08838674 70560,6917.884,95.438,540.693,538.806,0.0
53287.0,STARLINK-4107,PAYLOAD,2023-10-27 17:58:02,15.08845863,0.000137,53.217,102.5031,92.5552,267.5597,0.00013841,1.916e-05,0.0,0 STARLINK-4107,1 53287U 22086AX  23300.74864167  .00001916  00000-0  13841-3 0  9991,2 53287  53.2170 102.5031 0001370  92.5552 267.5597 15.08845863 70608,6917.862,95.437,540.675,538.78,0.0
53287.0,STARLINK-4107,PAYLOAD,2023-10-27 21:08:48,15.08848182,0.0001364,53.217,101.9082,91.9552,268.1596,0.00013477,1.858e-05,0.0,0 STARLINK-4107,1 53287U 22086AX  23300.88112009  .00001858  00000-0  13477-3 0  9997,2 53287  53.2170 101.9082 0001364  91.9552 268.1596 15.08848182 70785,6917.855,95.437,540.664,538.777,0.0
53287.0,STARLINK-4107,PAYLOAD,2023-10-28 03:30:21,15.08840428,0.000131,53.217,100.7186,90.3548,269.7594,5.9777e-05,6.64e-06,0.0,0 STARLINK-4107,1 53287U 22086AX  23301.14608692  .00000664  00000-0  59777-4 0  9993,2 53287  53.2170 100.7186 0001310  90.3548 269.7594 15.08840428 70663,6917.879,95.438,540.65,538.838,0.0
53287.0,STARLINK-4107,PAYLOAD,2023-10-28 17:48:51,15.08829594,0.000133,53.2172,98.0434,89.8752,270.2393,-4.348e-05,-9.8e-06,0.0,0 STARLINK-4107,1 53287U 22086AX  23301.74225960 -.00000980  00000-0 -43480-4 0  9999,2 53287  53.2172  98.0434 0001330  89.8752 270.2393 15.08829594 70757,6917.912,95.438,540.697,538.857,0.0
53287.0,STARLINK-4107,PAYLOAD,2023-10-29 03:21:09,15.0883941,0.0001478,53.2179,96.26,87.837,272.2791,9.2851e-06,-1.4e-06,0.0,0 STARLINK-4107,1 53287U 22086AX  23302.13969474 -.00000140  00000-0  92851-5 0  9992,2 53287  53.2179  96.2600 0001478  87.8370 272.2791 15.08839410 70815,6917.882,95.438,540.77,538.725,0.0
53287.0,STARLINK-4107,PAYLOAD,2023-10-29 14:28:50,15.08857018,0.0002392,53.2188,94.1784,97.771,262.3554,3.788e-05,3.15e-06,0.0,0 STARLINK-4107,1 53287U 22086AX  23302.60336261  .00000315  00000-0  37880-4 0  9999,2 53287  53.2188  94.1784 0002392  97.7710 262.3554 15.08857018 71046,6917.828,95.436,541.348,538.039,0.0
53287.0,STARLINK-4107,PAYLOAD,2023-10-29 19:14:59,15.08856385,0.000142,53.217,93.2851,87.2436,272.8719,0.00025503,3.775e-05,0.0,0 STARLINK-4107,1 53287U 22086AX  23302.80208155  .00003775  00000-0  25503-3 0  9992,2 53287  53.2170  93.2851 0001420  87.2436 272.8719 15.08856385 70912,6917.83,95.437,540.678,538.713,0.0
53287.0,STARLINK-4107,PAYLOAD,2023-10-30 09:33:29,15.08836496,0.0001197,53.218,90.6108,69.6753,290.4368,0.00011973,1.618e-05,0.0,0 STARLINK-4107,1 53287U 22086AX  23303.39825333  .00001618  00000-0  11973-3 0  9990,2 53287  53.2180  90.6108 0001197  69.6753 290.4368 15.08836496 71004,6917.891,95.438,540.584,538.928,0.0
53287.0,STARLINK-4107,PAYLOAD,2023-10-30 17:30:24,15.08834849,0.0001632,53.2157,89.1206,81.4395,278.6782,1.8782e-05,1.1e-07,0.0,0 STARLINK-4107,1 53287U 22086AX  23303.72945484  .00000011  00000-0  18782-4 0  9999,2 53287  53.2157  89.1206 0001632  81.4395 278.6782 15.08834849 71219,6917.896,95.438,540.89,538.632,0.0
53287.0,STARLINK-4107,PAYLOAD,2023-10-31 14:10:25,15.08843368,0.0001461,53.2163,85.2559,84.9867,275.1292,7.3416e-05,8.81e-06,0.0,0 STARLINK-4107,1 53287U 22086AX  23304.59057280  .00000881  00000-0  73416-4 0  9993,2 53287  53.2163  85.2559 0001461  84.9867 275.1292 15.08843368 71344,6917.87,95.437,540.746,538.724,0.0
53287.0,STARLINK-4107,PAYLOAD,2023-10-31 15:45:48,15.08845282,0.0001288,53.2154,84.9581,87.1657,272.9482,0.00011829,1.595e-05,0.0,0 STARLINK-4107,1 53287U 22086AX  23304.65681132  .00001595  00000-0  11829-3 0  9991,2 53287  53.2154  84.9581 0001288  87.1657 272.9482 15.08845282 71190,6917.864,95.437,540.62,538.838,0.0
53287.0,STARLINK-4107,PAYLOAD,2023-11-01 12:25:49,15.08842762,0.0001361,53.2164,81.0931,89.1015,271.0133,-4.265e-05,-9.67e-06,0.0,0 STARLINK-4107,1 53287U 22086AX  23305.51793360 -.00000967  00000-0 -42650-4 0  9995,2 53287  53.2164  81.0931 0001361  89.1015 271.0133 15.08842762 71328,6917.872,95.437,540.678,538.795,0.0
53287.0,STARLINK-4107,PAYLOAD,2023-11-01 14:01:12,15.08839919,0.0001353,53.2164,80.7947,97.1272,262.9873,0.0002159,3.15e-05,0.0,0 STARLINK-4107,1 53287U 22086AX  23305.58417580  .00003150  00000-0  21590-3 0  9993,2 53287  53.2164  80.7947 0001353  97.1272 262.9873 15.08839919 71494,6917.881,95.438,540.682,538.81,0.0
53287.0,STARLINK-4107,PAYLOAD,2023-11-01 15:36:35,15.08842734,0.0001374,53.216,80.498,91.9365,268.1785,0.0002053,2.981e-05,0.0,0 STARLINK-4107,1 53287U 22086AX  23305.65041467  .00002981  00000-0  20530-3 0  9992,2 53287  53.2160  80.4980 0001374  91.9365 268.1785 15.08842734 71503,6917.872,95.437,540.688,538.787,0.0
53287.0,STARLINK-4107,PAYLOAD,2023-11-02 13:51:59,15.08849575,0.0001321,53.219,76.3338,72.5041,287.6095,0.00032827,4.942e-05,0.0,0 STARLINK-4107,1 53287U 22086AX  23306.57777389  .00004942  00000-0  32827-3 0  9994,2 53287  53.2190  76.3338 0001321  72.5041 287.6095 15.08849575 71640,6917.851,95.437,540.63,538.802,0.0
53287.0,STARLINK-4107,PAYLOAD,2023-11-02 15:27:21,15.08866898,0.0001394,53.2167,76.0374,96.0104,264.1047,0.00047398,7.269e-05,0.0,0 STARLINK-4107,1 53287U 22086AX  23306.64400293  .00007269  00000-0  47398-3 0  9993,2 53287  53.2167  76.0374 0001394  96.0104 264.1047 15.08866898 71499,6917.798,95.436,540.628,538.699,0.0
53287.0,STARLINK-4107,PAYLOAD,2023-11-03 08:56:37,15.08842598,0.0001452,53.2164,72.7663,91.3526,268.7633,0.00012185,1.652e-05,0.0,0 STARLINK-4107,1 53287U 22086AX  23307.37265384  .00001652  00000-0  12185-3 0  9990,2 53287  53.2164  72.7663 0001452  91.3526 268.7633 15.08842598 71606,6917.872,95.437,540.742,538.733,0.0
53287.0,STARLINK-4107,PAYLOAD,2023-11-03 13:42:46,15.08838899,0.0001388,53.2167,71.8725,104.1365,255.9781,4.2162e-05,3.83e-06,0.0,0 STARLINK-4107,1 53287U 22086AX  23307.57137591  .00000383  00000-0  42162-4 0  9999,2 53287  53.2167  71.8725 0001388 104.1365 255.9781 15.08838899 71791,6917.884,95.438,540.709,538.789,0.0
53287.0,STARLINK-4107,PAYLOAD,2023-11-03 15:18:10,15.08837675,0.0001369,53.2174,71.5759,89.2957,270.8192,-2.8229e-05,-7.37e-06,0.0,0 STARLINK-4107,1 53287U 22086AX  23307.63761604 -.00000737  00000-0 -28229-4 0  9997,2 53287  53.2174  71.5759 0001369  89.2957 270.8192 15.08837675 71807,6917.887,95.438,540.7,538.805,0.0
53287.0,STARLINK-4107,PAYLOAD,2023-11-04 00:50:29,15.08832613,0.0001531,53.2181,69.7915,93.3849,266.7318,-4.8957e-05,-1.067e-05,0.0,0 STARLINK-4107,1 53287U 22086AX  23308.03505980 -.00001067  00000-0 -48957-4 0  9992,2 53287  53.2181  69.7915 0001531  93.3849 266.7318 15.08832613 71705,6917.903,95.438,540.827,538.709,0.0
53287.0,STARLINK-4107,PAYLOAD,2023-11-04 15:08:57,15.08840722,0.0001542,53.2191,67.1186,84.6771,275.4397,9.2396e-05,1.183e-05,0.0,0 STARLINK-4107,1 53287U 22086AX  23308.63121803  .00001183  00000-0  92396-4 0  9999,2 53287  53.2191  67.1186 0001542  84.6771 275.4397 15.08840722 71958,6917.878,95.438,540.81,538.676,0.0
53287.0,STARLINK-4107,PAYLOAD,2023-11-05 00:41:17,15.08833341,0.0001514,53.2192,65.3332,87.1352,272.9813,-0.00025617,-4.362e-05,0.0,0 STARLINK-4107,1 53287U 22086AX  23309.02867089 -.00004362  00000-0 -25617-3 0  9991,2 53287  53.2192  65.3332 0001514  87.1352 272.9813 15.08833341 71857,6917.901,95.438,540.813,538.718,0.0
53287.0,STARLINK-4107,PAYLOAD,2023-11-05 13:24:22,15.08826173,0.0001563,53.22,62.9576,98.1423,261.9746,0.00010235,1.341e-05,0.0,0 STARLINK-4107,1 53287U 22086AX  23309.55859552  .00001341  00000-0  10235-3 0  9997,2 53287  53.2200  62.9576 0001563  98.1423 261.9746 15.08826173 72090,6917.923,95.438,540.869,538.706,0.0
53287.0,STARLINK-4107,PAYLOAD,2023-11-06 11:39:45,15.08841815,9.51e-05,53.2178,58.7866,34.01,326.0953,0.00048408,7.425e-05,0.0,0 STARLINK-4107,1 53287U 22086AX  23310.48594518  .00007425  00000-0  48408-3 0  9991,2 53287  53.2178  58.7866 0000951  34.0100 326.0953 15.08841815 72071,6917.875,95.437,540.398,539.082,0.0
53287.0,STARLINK-4107,PAYLOAD,2023-11-06 13:15:08,15.08834201,0.0001182,53.2178,58.4942,89.3856,270.7271,-3.9875e-05,-9.22e-06,0.0,0 STARLINK-4107,1 53287U 22086AX  23310.55218599 -.00000922  00000-0 -39875-4 0  9997,2 53287  53.2178  58.4942 0001182  89.3856 270.7271 15.08834201 72249,6917.898,95.438,540.581,538.945,0.0
